CCSDS_OMM_VERS = 2.0
CREATION_DATE  = 
ORIGINATOR     = 

OBJECT_NAME    = 2026-027A
OBJECT_ID      = 2026-027A
CENTER_NAME    = EARTH
REF_FRAME      = TEME
TIME_SYSTEM    = UTC
MEAN_ELEMENT_THEORY = SGP/SGP4

EPOCH          = 2026-02-22T19:14:06.067104
MEAN_MOTION    = 15.17390782
ECCENTRICITY   = .0009281
INCLINATION    = 97.4883
RA_OF_ASC_NODE = 182.9767
ARG_OF_PERICENTER = 249.1710
MEAN_ANOMALY   = 110.8530

EPHEMERIS_TYPE = 0
CLASSIFICATION_TYPE = U
NORAD_CAT_ID   = 67746
ELEMENT_SET_NO = 999
REV_AT_EPOCH   = 160
BSTAR          = .48835E-3
MEAN_MOTION_DOT = .9706E-4
MEAN_MOTION_DDOT = 0

CCSDS_OMM_VERS = 2.0
CREATION_DATE  = 
ORIGINATOR     = 

OBJECT_NAME    = 2026-027B
OBJECT_ID      = 2026-027B
CENTER_NAME    = EARTH
REF_FRAME      = TEME
TIME_SYSTEM    = UTC
MEAN_ELEMENT_THEORY = SGP/SGP4

EPOCH          = 2026-02-22T19:13:05.339136
MEAN_MOTION    = 15.17492188
ECCENTRICITY   = .0009421
INCLINATION    = 97.4878
RA_OF_ASC_NODE = 182.9768
ARG_OF_PERICENTER = 251.8517
MEAN_ANOMALY   = 108.1691

EPHEMERIS_TYPE = 0
CLASSIFICATION_TYPE = U
NORAD_CAT_ID   = 67747
ELEMENT_SET_NO = 999
REV_AT_EPOCH   = 160
BSTAR          = .49145E-3
MEAN_MOTION_DOT = .9797E-4
MEAN_MOTION_DDOT = 0

CCSDS_OMM_VERS = 2.0
CREATION_DATE  = 
ORIGINATOR     = 

OBJECT_NAME    = 2026-027C
OBJECT_ID      = 2026-027C
CENTER_NAME    = EARTH
REF_FRAME      = TEME
TIME_SYSTEM    = UTC
MEAN_ELEMENT_THEORY = SGP/SGP4

EPOCH          = 2026-02-22T20:46:45.951168
MEAN_MOTION    = 15.17593229
ECCENTRICITY   = .000981
INCLINATION    = 97.4889
RA_OF_ASC_NODE = 183.0449
ARG_OF_PERICENTER = 254.6902
MEAN_ANOMALY   = 105.3247

EPHEMERIS_TYPE = 0
CLASSIFICATION_TYPE = U
NORAD_CAT_ID   = 67748
ELEMENT_SET_NO = 999
REV_AT_EPOCH   = 161
BSTAR          = .34402E-3
MEAN_MOTION_DOT = .6855E-4
MEAN_MOTION_DDOT = 0

CCSDS_OMM_VERS = 2.0
CREATION_DATE  = 
ORIGINATOR     = 

OBJECT_NAME    = 2026-027D
OBJECT_ID      = 2026-027D
CENTER_NAME    = EARTH
REF_FRAME      = TEME
TIME_SYSTEM    = UTC
MEAN_ELEMENT_THEORY = SGP/SGP4

EPOCH          = 2026-02-22T16:00:17.263872
MEAN_MOTION    = 15.17796809
ECCENTRICITY   = .0009592
INCLINATION    = 97.4885
RA_OF_ASC_NODE = 182.8502
ARG_OF_PERICENTER = 260.1464
MEAN_ANOMALY   = 99.8687

EPHEMERIS_TYPE = 0
CLASSIFICATION_TYPE = U
NORAD_CAT_ID   = 67749
ELEMENT_SET_NO = 999
REV_AT_EPOCH   = 153
BSTAR          = .57981E-3
MEAN_MOTION_DOT = .11675E-3
MEAN_MOTION_DDOT = 0

CCSDS_OMM_VERS = 2.0
CREATION_DATE  = 
ORIGINATOR     = 

OBJECT_NAME    = 2026-027E
OBJECT_ID      = 2026-027E
CENTER_NAME    = EARTH
REF_FRAME      = TEME
TIME_SYSTEM    = UTC
MEAN_ELEMENT_THEORY = SGP/SGP4

EPOCH          = 2026-02-22T19:10:04.187712
MEAN_MOTION    = 15.17795869
ECCENTRICITY   = .000876
INCLINATION    = 97.4895
RA_OF_ASC_NODE = 182.9823
ARG_OF_PERICENTER = 261.2549
MEAN_ANOMALY   = 98.7693

EPHEMERIS_TYPE = 0
CLASSIFICATION_TYPE = U
NORAD_CAT_ID   = 67750
ELEMENT_SET_NO = 999
REV_AT_EPOCH   = 160
BSTAR          = .48083E-3
MEAN_MOTION_DOT = .9666E-4
MEAN_MOTION_DDOT = 0

CCSDS_OMM_VERS = 2.0
CREATION_DATE  = 
ORIGINATOR     = 

OBJECT_NAME    = 2026-027F
OBJECT_ID      = 2026-027F
CENTER_NAME    = EARTH
REF_FRAME      = TEME
TIME_SYSTEM    = UTC
MEAN_ELEMENT_THEORY = SGP/SGP4

EPOCH          = 2026-02-22T19:09:15.235200
MEAN_MOTION    = 15.17937966
ECCENTRICITY   = .0009923
INCLINATION    = 97.4895
RA_OF_ASC_NODE = 182.9834
ARG_OF_PERICENTER = 260.6587
MEAN_ANOMALY   = 99.3525

EPHEMERIS_TYPE = 0
CLASSIFICATION_TYPE = U
NORAD_CAT_ID   = 67751
ELEMENT_SET_NO = 999
REV_AT_EPOCH   = 160
BSTAR          = .8693E-3
MEAN_MOTION_DOT = .17626E-3
MEAN_MOTION_DDOT = 0

CCSDS_OMM_VERS = 2.0
CREATION_DATE  = 
ORIGINATOR     = 

OBJECT_NAME    = 2026-027G
OBJECT_ID      = 2026-027G
CENTER_NAME    = EARTH
REF_FRAME      = TEME
TIME_SYSTEM    = UTC
MEAN_ELEMENT_THEORY = SGP/SGP4

EPOCH          = 2026-02-22T19:09:12.728736
MEAN_MOTION    = 15.17888398
ECCENTRICITY   = .0009095
INCLINATION    = 97.4890
RA_OF_ASC_NODE = 182.9824
ARG_OF_PERICENTER = 263.3893
MEAN_ANOMALY   = 96.6306

EPHEMERIS_TYPE = 0
CLASSIFICATION_TYPE = U
NORAD_CAT_ID   = 67752
ELEMENT_SET_NO = 999
REV_AT_EPOCH   = 160
BSTAR          = .54232E-3
MEAN_MOTION_DOT = .10942E-3
MEAN_MOTION_DDOT = 0

CCSDS_OMM_VERS = 2.0
CREATION_DATE  = 
ORIGINATOR     = 

OBJECT_NAME    = 2026-027H
OBJECT_ID      = 2026-027H
CENTER_NAME    = EARTH
REF_FRAME      = TEME
TIME_SYSTEM    = UTC
MEAN_ELEMENT_THEORY = SGP/SGP4

EPOCH          = 2026-02-22T20:08:06.760896
MEAN_MOTION    = 15.63044621
ECCENTRICITY   = .025589
INCLINATION    = 97.5131
RA_OF_ASC_NODE = 183.7721
ARG_OF_PERICENTER = 300.0880
MEAN_ANOMALY   = 57.5228

EPHEMERIS_TYPE = 0
CLASSIFICATION_TYPE = U
NORAD_CAT_ID   = 67753
ELEMENT_SET_NO = 999
REV_AT_EPOCH   = 165
BSTAR          = .75418E-3
MEAN_MOTION_DOT = .421882E-2
MEAN_MOTION_DDOT = .23493E-5

CCSDS_OMM_VERS = 2.0
CREATION_DATE  = 
ORIGINATOR     = 

OBJECT_NAME    = 2026-027J
OBJECT_ID      = 2026-027J
CENTER_NAME    = EARTH
REF_FRAME      = TEME
TIME_SYSTEM    = UTC
MEAN_ELEMENT_THEORY = SGP/SGP4

EPOCH          = 2026-02-22T19:25:39.033984
MEAN_MOTION    = 15.72064172
ECCENTRICITY   = .0223825
INCLINATION    = 97.5091
RA_OF_ASC_NODE = 183.8113
ARG_OF_PERICENTER = 299.2371
MEAN_ANOMALY   = 58.6675

EPHEMERIS_TYPE = 0
CLASSIFICATION_TYPE = U
NORAD_CAT_ID   = 67754
ELEMENT_SET_NO = 999
REV_AT_EPOCH   = 159
BSTAR          = .14523E-2
MEAN_MOTION_DOT = .967882E-2
MEAN_MOTION_DDOT = .23962E-5

CCSDS_OMM_VERS = 2.0
CREATION_DATE  = 
ORIGINATOR     = 

OBJECT_NAME    = 2026-028A
OBJECT_ID      = 2026-028A
CENTER_NAME    = EARTH
REF_FRAME      = TEME
TIME_SYSTEM    = UTC
MEAN_ELEMENT_THEORY = SGP/SGP4

EPOCH          = 2026-02-22T06:35:38.329152
MEAN_MOTION    = 0.99527717
ECCENTRICITY   = .0042023
INCLINATION    = 0.5066
RA_OF_ASC_NODE = 288.6436
ARG_OF_PERICENTER = 230.2147
MEAN_ANOMALY   = 201.2968

EPHEMERIS_TYPE = 0
CLASSIFICATION_TYPE = U
NORAD_CAT_ID   = 67756
ELEMENT_SET_NO = 999
REV_AT_EPOCH   = 10
BSTAR          = 0
MEAN_MOTION_DOT = -.223E-5
MEAN_MOTION_DDOT = 0

CCSDS_OMM_VERS = 2.0
CREATION_DATE  = 
ORIGINATOR     = 

OBJECT_NAME    = KUIPER-00159
OBJECT_ID      = 2026-030A
CENTER_NAME    = EARTH
REF_FRAME      = TEME
TIME_SYSTEM    = UTC
MEAN_ELEMENT_THEORY = SGP/SGP4

EPOCH          = 2026-02-22T20:00:03.000384
MEAN_MOTION    = 15.35023897
ECCENTRICITY   = .0004002
INCLINATION    = 51.8851
RA_OF_ASC_NODE = 290.7713
ARG_OF_PERICENTER = 11.4127
MEAN_ANOMALY   = 217.5634

EPHEMERIS_TYPE = 0
CLASSIFICATION_TYPE = U
NORAD_CAT_ID   = 67764
ELEMENT_SET_NO = 999
REV_AT_EPOCH   = 218
BSTAR          = .14127E-3
MEAN_MOTION_DOT = .4495E-4
MEAN_MOTION_DDOT = 0

CCSDS_OMM_VERS = 2.0
CREATION_DATE  = 
ORIGINATOR     = 

OBJECT_NAME    = KUIPER-00160
OBJECT_ID      = 2026-030B
CENTER_NAME    = EARTH
REF_FRAME      = TEME
TIME_SYSTEM    = UTC
MEAN_ELEMENT_THEORY = SGP/SGP4

EPOCH          = 2026-02-22T20:00:03.000384
MEAN_MOTION    = 15.34957932
ECCENTRICITY   = .0004286
INCLINATION    = 51.8816
RA_OF_ASC_NODE = 290.7738
ARG_OF_PERICENTER = 20.4602
MEAN_ANOMALY   = 205.4226

EPHEMERIS_TYPE = 0
CLASSIFICATION_TYPE = U
NORAD_CAT_ID   = 67765
ELEMENT_SET_NO = 999
REV_AT_EPOCH   = 130
BSTAR          = .13867E-3
MEAN_MOTION_DOT = .4396E-4
MEAN_MOTION_DDOT = 0

