2026-027A               
1 67746U 26027A   26053.80145911  .00009706  00000+0  48835-3 0  9994
2 67746  97.4883 182.9767 0009281 249.1710 110.8530 15.17390782  1603
2026-027B               
1 67747U 26027B   26053.80075624  .00009797  00000+0  49145-3 0  9993
2 67747  97.4878 182.9768 0009421 251.8517 108.1691 15.17492188  1601
2026-027C               
1 67748U 26027C   26053.86580962  .00006855  00000+0  34402-3 0  9998
2 67748  97.4889 183.0449 0009810 254.6902 105.3247 15.17593229  1618
2026-027D               
1 67749U 26027D   26053.66686648  .00011675  00000+0  57981-3 0  9998
2 67749  97.4885 182.8502 0009592 260.1464  99.8687 15.17796809  1539
2026-027E               
1 67750U 26027E   26053.79865958  .00009666  00000+0  48083-3 0  9997
2 67750  97.4895 182.9823 0008760 261.2549  98.7693 15.17795869  1609
2026-027F               
1 67751U 26027F   26053.79809300  .00017626  00000+0  86930-3 0  9995
2 67751  97.4895 182.9834 0009923 260.6587  99.3525 15.17937966  1606
2026-027G               
1 67752U 26027G   26053.79806399  .00010942  00000+0  54232-3 0  9995
2 67752  97.4890 182.9824 0009095 263.3893  96.6306 15.17888398  1602
2026-027H               
1 67753U 26027H   26053.83896714  .00421882  23493-5  75418-3 0  9996
2 67753  97.5131 183.7721 0255890 300.0880  57.5228 15.63044621  1656
2026-027J               
1 67754U 26027J   26053.80947956  .00967882  23962-5  14523-2 0  9994
2 67754  97.5091 183.8113 0223825 299.2371  58.6675 15.72064172  1599
2026-028A               
1 67756U 26028A   26053.27474918 -.00000223  00000+0  00000+0 0  9993
2 67756   0.5066 288.6436 0042023 230.2147 201.2968  0.99527717   103
KUIPER-00159            
1 67764U 26030A   26053.83336806  .00004495  00000+0  14127-3 0  9993
2 67764  51.8851 290.7713 0004002  11.4127 217.5634 15.35023897  2183
KUIPER-00160            
1 67765U 26030B   26053.83336806  .00004396  00000+0  13867-3 0  9994
2 67765  51.8816 290.7738 0004286  20.4602 205.4226 15.34957932  1305
